1 29155U 06018A   10004.29798884 -.00000086  00000-0  10000-3 0  9086
2 29155 000.3702 092.5634 0003172 155.6334 217.4689 01.00272261 13276